1 08820U 76039A   03338.79727319 -.00000017  00000-0  10000-3 0  9932
2 08820 109.8311 240.0068 0044357 264.9863  94.5725  6.38664576387959
